{
    "objects" : [
        {
            "name" : "water bottle", "ClimateChange": "7.87E+01", "LandUse": "5.59E+02", "WaterUse": "6.97E+00"
        },
        {
            "name" : "socks", "ClimateChange": "7.89E+01", "LandUse": "5.61E+02", "WaterUse": "6.99E+00"
        },
        {
            "name" : "notebook", "ClimateChange": "8.08E+01", "LandUse": "5.74E+02", "WaterUse": "7.16E+00"
        },
        {
            "name" : "milk bottle", "ClimateChange": "2.46E+02", "LandUse": "1.83E+03", "WaterUse": "2.34E+01"
        },
        {
            "name" : "burger", "ClimateChange": "1.46E+00", "LandUse": "4.77E+03", "WaterUse": "5.32E+01"
        },
        {
            "name" : "pen", "ClimateChange": "8.30E+01", "LandUse": "4.05E+02", "WaterUse": "8.37E+00"
        },
        {
            "name" : "soda can", "ClimateChange": "4.50E+02", "LandUse": "3.19E+02", "WaterUse": "3.98E+01"
        },
        {
            "name" : "Eggs (paper)", "ClimateChange": "5.43E+02", "LandUse": "3.86E+03", "WaterUse": "4.81E+01"
        },
        {
            "name" : "Eggs (plastic)", "ClimateChange": "6.12E+02", "LandUse": "3.36E+03", "WaterUse": "7.61E+01"
        },
        {
            "name" : "Iphone", "ClimateChange": "1.12E+03", "LandUse": "7.91E+02", "WaterUse": "9.87E+01"
        }
    ]
}
